STARLINK-3312           
1 50850U 22001AZ  26068.47365004 -.00000754  00000+0 -29322-4 0  9993
2 50850  53.2172 140.0908 0001284  96.2045 263.9093 15.08837152231337
PRSC-S1                 
1 65055U 25164A   26068.60758212  .00007316  00000+0  46631-3 0  9991
2 65055  41.1290 129.3637 0004466 348.3012  11.7698 15.08919510 33403
